SARSAT 7 (NOAA 15)      
1 25338U 98030A   23095.55073550  .00000279  00000+0  13432-3 0  9993
2 25338  98.6142 125.8241 0010878 160.2184 199.9420 14.26284074294650
GPS BIIR-08             
1 27663U 03005A   23095.44190010  .00000005  00000+0  00000+0 0  9993
2 27663  55.3298 261.4520 0132335  44.1292 318.1030  2.00574800147876
GPS BIIR-11             
1 28190U 04009A   23095.47361937 -.00000038  00000+0  00000+0 0  9992
2 28190  55.8065 322.4931 0090949 130.7190  52.0221  2.00570928139500
GPS BIIR-13             
1 28474U 04045A   23095.17456267 -.00000087  00000+0  00000+0 0  9999
2 28474  55.4246  11.7630 0200428 284.5651 251.4095  2.00563190134985
SARSAT 10 (NOAA 18)     
1 28654U 05018A   23095.55242479  .00000312  00000+0  19149-3 0  9998
2 28654  98.9132 170.2863 0013704 221.9023 138.1101 14.12904967921224
GPS BIIR-14M            
1 28874U 05038A   23094.52287052 -.00000035  00000+0  00000+0 0  9991
2 28874  55.8628 319.9763 0137682 279.0122 322.4122  2.00556058128371
METEOSAT-9 (MSG-2)      
1 28912U 05049B   23095.53745244  .00000137  00000+0  00000+0 0  9992
2 28912   6.6815  64.2812 0002328 191.7553 176.7028  1.00270115 63332
GOES 13                 
1 29155U 06018A   23095.57688361  .00000041  00000+0  00000+0 0  9993
2 29155   1.3448  92.0312 0001972 177.3517 193.5511  1.00277828 31667
GPS BIIR-16M            
1 29601U 06052A   23094.75156685  .00000003  00000+0  00000+0 0  9993
2 29601  55.3462 260.4304 0086936  77.3400 283.6000  2.00568623119953
GPS BIIR-17M            
1 32260U 07047A   23095.05420187  .00000068  00000+0  00000+0 0  9999
2 32260  53.4057 128.4521 0145646  67.6328 293.9900  2.00560086113363
GPS BIIR-18M            
1 32384U 07062A   23095.62000819 -.00000035  00000+0  00000+0 0  9997
2 32384  55.9897 320.7327 0022159 141.0768  38.7798  2.00577641112070
SARSAT 12 (NOAA 19)     
1 33591U 09005A   23095.58788110  .00000264  00000+0  16721-3 0  9993
2 33591  99.1090 140.3266 0014869  88.1979 272.0894 14.12725655729438
GOES 14                 
1 35491U 09033A   23095.50685760 -.00000063  00000+0  00000+0 0  9991
2 35491   0.1651 115.5707 0005632 289.5896 222.7692  1.00270057 50395
GOES 15                 
1 36411U 10008A   23094.92929296  .00000066  00000+0  00000+0 0  9990
2 36411   0.1792  95.3784 0003095  97.4619 206.3259  1.00210511 47936
GPS BIIF-2              
1 37753U 11036A   23095.29422237 -.00000084  00000+0  00000+0 0  9997
2 37753  56.7102  17.3621 0124587  53.6479  36.0233  2.00567301 85834
GSAT0101 (GALILEO-PFM)  
1 37846U 11060A   23091.26534160 -.00000098  00000+0  00000+0 0  9994
2 37846  57.0805  13.5242 0004200   9.3471 350.6623  1.70476162 71122
GSAT0102 (GALILEO-FM2)  
1 37847U 11060B   23091.50716987 -.00000097  00000+0  00000+0 0  9990
2 37847  57.0813  13.5174 0004966 345.2778 209.7692  1.70475512 71136
LUCH 5A                 
1 37951U 11074B   23095.02605382 -.00000037  00000+0  00000+0 0  9992
2 37951   5.7562  92.2979 0003235 298.2314 338.9653  1.00274634 41461
METEOSAT-10 (MSG-3)     
1 38552U 12035B   23095.35743778 -.00000003  00000+0  00000+0 0  9999
2 38552   2.0286  53.7099 0000628 281.0035 347.0372  1.00271120 39137
SARSAT 13 (METOP-B)     
1 38771U 12049A   23095.60898424  .00000217  00000+0  11912-3 0  9998
2 38771  98.6862 156.1713 0000924 119.9805   0.3185 14.21483264547243
GPS BIIF-3              
1 38833U 12053A   23095.15354802  .00000013  00000+0  00000+0 0  9995
2 38833  53.5136 191.4131 0136083  50.3783 310.8383  2.00564972 75998
GSAT0103 (GALILEO-FM3)  
1 38857U 12055A   23095.41047537  .00000068  00000+0  00000+0 0  9996
2 38857  55.2278 133.6683 0005571 265.8092  94.2227  1.70473715 65082
GSAT0104 (GALILEO-FM4)  
1 38858U 12055B   23093.62039905  .00000057  00000+0  00000+0 0  9996
2 38858  55.2275 133.7191 0003031 261.8671  98.1912  1.70473969 65055
GPS BIIF-4              
1 39166U 13023A   23094.01578912 -.00000031  00000+0  00000+0 0  9998
2 39166  55.4815 316.2542 0113689  40.3566 320.5342  2.00564967 72412
INSAT-3D                
1 39216U 13038B   23095.61848626 -.00000151  00000+0  00000+0 0  9992
2 39216   0.0220 233.5866 0001357 137.1475 127.6825  1.00272365 35368
GPS BIIF-5              
1 39533U 14008A   23095.51216247  .00000013  00000+0  00000+0 0  9995
2 39533  53.6030 196.9375 0064471 211.7226 147.9029  2.00569860 66241
LUCH 5V                 
1 39727U 14023A   23095.59187682 -.00000262  00000+0  00000+0 0  9992
2 39727   2.2045  77.4408 0002023 317.3994 106.6133  1.00274484 32641
GPS BIIF-6              
1 39741U 14026A   23095.29071610 -.00000084  00000+0  00000+0 0  9993
2 39741  56.6660  16.8857 0030460 312.3758  47.3782  2.00568159 65099
GPS BIIF-7              
1 40105U 14045A   23095.38390071  .00000071  00000+0  00000+0 0  9990
2 40105  54.7649 135.1425 0021591 115.0333 245.2795  2.00567152 62631
GSAT0201 (GALILEO 5)    
1 40128U 14050A   23092.11212278 -.00000057  00000+0  00000+0 0  9996
2 40128  50.0686 320.7684 1612299 134.4479 239.9319  1.85519370 56572
GSAT0202 (GALILEO 6)    
1 40129U 14050B   23095.06704206 -.00000052  00000+0  00000+0 0  9996
2 40129  50.0874 319.7185 1609787 135.3704 238.7794  1.85519918 58793
GPS BIIF-8              
1 40294U 14068A   23095.25691021  .00000010  00000+0  00000+0 0  9992
2 40294  56.0516  76.4311 0044315  55.9767 304.4414  2.00561586 61765
GLONASS-K 2             
1 40315U 14075A   23095.44115267  .00000010  00000+0  00000+0 0  9998
2 40315  63.6518 230.9578 0017853 204.6914 205.3892  2.13101426 64951
GPS BIIF-9              
1 40534U 15013A   23094.89062479 -.00000002  00000+0  00000+0 0  9990
2 40534  53.5383 252.6102 0077997  25.0258 335.3090  2.00563922 58379
GSAT0203 (GALILEO 7)    
1 40544U 15017A   23095.15091115 -.00000085  00000+0  00000+0 0  9995
2 40544  56.8764  13.4125 0003195 294.5788  65.3989  1.70475728 49275
GSAT0204 (GALILEO 8)    
1 40545U 15017B   23091.29814788 -.00000098  00000+0  00000+0 0  9990
2 40545  56.8820  13.5309 0002482 281.9903  77.9837  1.70475564 12258
GPS BIIF-10             
1 40730U 15033A   23095.05096346 -.00000030  00000+0  00000+0 0  9990
2 40730  54.9725 314.9006 0083868  12.6322 347.6265  2.00563230 56544
METEOSAT-11 (MSG-4)     
1 40732U 15034A   23084.92549459 -.00000009  00000+0  00000+0 0  9991
2 40732   0.4922  23.1486 0000496  29.5435 104.0310  1.00274744 28194
GSAT0205 (GALILEO 9)    
1 40889U 15045A   23093.41253674  .00000011  00000+0  00000+0 0  9993
2 40889  55.4483 253.9481 0005633  36.8464 323.1449  1.70473707 47058
GSAT0206 (GALILEO 10)   
1 40890U 15045B   23093.63323189  .00000011  00000+0  00000+0 0  9998
2 40890  55.4474 253.9378 0003690  35.5834 324.3929  1.70473807 47083
GPS BIIF-11             
1 41019U 15062A   23095.10542558  .00000010  00000+0  00000+0 0  9997
2 41019  56.0369  76.2846 0086328 222.0120 137.3229  2.00562350 54385
ELEKTRO-L 2             
1 41105U 15074A   23095.38207605 -.00000107  00000+0  00000+0 0  9995
2 41105   3.7235  84.6706 0000757 195.2409  36.5869  1.00273058 26790
GSAT0209 (GALILEO 12)   
1 41174U 15079A   23094.39203692  .00000063  00000+0  00000+0 0  9998
2 41174  55.2448 133.4019 0004989 299.9938  60.0514  1.70474882 44833
GSAT0208 (GALILEO 11)   
1 41175U 15079B   23094.61158525  .00000064  00000+0  00000+0 0  9999
2 41175  55.2428 133.3941 0004332 298.1566  61.8947  1.70474829 45252
GPS BIIF-12             
1 41328U 16007A   23095.19325908  .00000071  00000+0  00000+0 0  9994
2 41328  54.9738 135.8918 0069934 233.7561 125.6830  2.00557131 52397
GSAT0211 (GALILEO 14)   
1 41549U 16030A   23094.14549403  .00000011  00000+0  00000+0 0  9991
2 41549  55.5946 253.8873 0003443   6.3875 353.5665  1.70473827 42725
GSAT0210 (GALILEO 13)   
1 41550U 16030B   23095.02359227  .00000011  00000+0  00000+0 0  9994
2 41550  55.5922 253.8646 0001454 331.7533  28.1854  1.70473541 42712
INSAT-3DR               
1 41752U 16054A   23095.55744097 -.00000072  00000+0  00000+0 0  9993
2 41752   0.1132  89.8741 0011960 191.4215 186.9689  1.00273198 24100
GSAT0207 (GALILEO 15)   
1 41859U 16069A   23092.33966410  .00000046  00000+0  00000+0 0  9995
2 41859  54.9061 133.5683 0005391 287.6468  72.3815  1.70474842 39423
GSAT0212 (GALILEO 16)   
1 41860U 16069B   23092.19417699  .00000045  00000+0  00000+0 0  9990
2 41860  54.9033 133.5695 0003415 305.1890  54.8655  1.70473492 39671
GSAT0213 (GALILEO 17)   
1 41861U 16069C   23092.55936565  .00000048  00000+0  00000+0 0  9992
2 41861  54.9055 133.5650 0005441 270.9339  89.0919  1.70473641 39540
GSAT0214 (GALILEO 18)   
1 41862U 16069D   23093.29309446  .00000054  00000+0  00000+0 0  9994
2 41862  54.9043 133.5389 0004504 273.8862  86.1537  1.70473687 39688
GOES 16                 
1 41866U 16071A   23095.51339497 -.00000243  00000+0  00000+0 0  9998
2 41866   0.0657 287.3208 0000528  91.9566 283.8888  1.00273038 23381
GSAT-17                 
1 42815U 17040B   23094.83009942 -.00000255  00000+0  00000+0 0  9996
2 42815   0.0158 143.9579 0004014 152.2195 289.0438  1.00272383 21067
GSAT0215 (GALILEO 19)   
1 43055U 17079A   23094.36947124  .00000011  00000+0  00000+0 0  9995
2 43055  55.5688 253.7095 0000876 342.7509  17.1947  1.70474505 33040
GSAT0216 (GALILEO 20)   
1 43056U 17079B   23092.90175730  .00000012  00000+0  00000+0 0  9991
2 43056  55.5712 253.7496 0002262 305.9984  53.9352  1.70474619 33036
GSAT0217 (GALILEO 21)   
1 43057U 17079C   23092.53549592  .00000012  00000+0  00000+0 0  9992
2 43057  55.5693 253.7589 0002426 333.7706  26.1734  1.70474516 33011
GSAT0218 (GALILEO 22)   
1 43058U 17079D   23094.51525067  .00000011  00000+0  00000+0 0  9993
2 43058  55.5684 253.7021 0002551 294.9084  65.0131  1.70474547 33072
GOES 17                 
1 43226U 18022A   23095.42710503 -.00000085  00000+0  00000+0 0  9993
2 43226   0.0066  99.5280 0001898 310.5861 192.3597  1.00270747 18704
GSAT0221 (GALILEO 25)   
1 43564U 18060A   23095.00081122 -.00000085  00000+0  00000+0 0  9992
2 43564  57.2576  13.3063 0004211 307.9111  52.0616  1.70475507 29234
